[{"OBJECT_NAME":"OBJECT V","OBJECT_ID":"2023-085V","EPOCH":"2026-03-09T21:44:00.165408","MEAN_MOTION":15.30745852,"ECCENTRICITY":0.00069081,"INCLINATION":97.4843,"RA_OF_ASC_NODE":179.3833,"ARG_OF_PERICENTER":71.0503,"MEAN_ANOMALY":289.1485,"EPHEMERIS_TYPE":0,"CLASSIFICATION_TYPE":"U","NORAD_CAT_ID":57023,"ELEMENT_SET_NO":999,"REV_AT_EPOCH":15149,"BSTAR":0.00067780507,"MEAN_MOTION_DOT":0.00020109,"MEAN_MOTION_DDOT":0},{"OBJECT_NAME":"STARLINK-36130","OBJECT_ID":"2025-286G","EPOCH":"2026-03-09T01:51:23.905728","MEAN_MOTION":15.30197984,"ECCENTRICITY":6.66e-5,"INCLINATION":53.1622,"RA_OF_ASC_NODE":1.2527,"ARG_OF_PERICENTER":111.3589,"MEAN_ANOMALY":248.7483,"EPHEMERIS_TYPE":0,"CLASSIFICATION_TYPE":"U","NORAD_CAT_ID":66931,"ELEMENT_SET_NO":999,"REV_AT_EPOCH":1532,"BSTAR":0.0012635331,"MEAN_MOTION_DOT":0.00037248,"MEAN_MOTION_DDOT":0}]
